BEIDOU 7                
1 37256U 10068A   20246.05748519 -.00000187  00000-0  00000+0 0  9997
2 37256  51.3523 297.4268 0082566 213.9639 329.5756  1.00289173 35592
EUTELSAT KA-SAT 9A      
1 37258U 10069A   20246.36450299  .00000042  00000-0  00000+0 0  9998
2 37258   0.0294 295.7532 0004060 152.6007  33.8699  1.00271448 35627
HISPASAT 30W-5          
1 37264U 10070A   20246.42868595 -.00000235  00000-0  00000-0 0  9992
2 37264   0.0279 122.8869 0005949  40.6239 302.8673  1.00271869 31994
KOREASAT 6              
1 37265U 10070B   20246.53799584 -.00000381  00000-0  00000-0 0  9998
2 37265   0.0138 102.1367 0001481  90.0224  99.6367  1.00269533 35577
BEIDOU 8                
1 37384U 11013A   20246.39424502 -.00000164  00000-0  10000-3 0  9990
2 37384  59.3759  60.8166 0050329 200.9280 340.6007  1.00284809 34483
INTELSAT NEW DAWN       
1 37392U 11016A   20246.29750580  .00000136  00000-0  00000+0 0  9992
2 37392   0.0172 176.6605 0000817 348.4729 316.6757  1.00272319 34322
YAHSAT 1A               
1 37393U 11016B   20246.51696872  .00000082  00000-0  00000-0 0  9992
2 37393   0.0239 109.1226 0001538  11.4295 100.1684  1.00273194 21214
SBIRS GEO-1 (USA 230)   
1 37481U 11019A   20246.44787785 -.00000026  00000-0  00000-0 0  9998
2 37481   1.9866 346.6958 0002307 174.9960  47.7912  1.00272511 34235
TELSTAR 14R             
1 37602U 11021A   20246.49393844 -.00000299  00000-0  00000-0 0  9992
2 37602   0.0573 303.2986 0001596 171.8713 341.7230  1.00273548 34631
GSAT-8                  
1 37605U 11022A   20246.51749213  .00000066  00000-0  00000-0 0  9995
2 37605   0.0076 144.8377 0003926 102.3002 336.3429  1.00272451 32027
ST-2                    
1 37606U 11022B   20246.52403481 -.00000231  00000-0  00000-0 0  9996
2 37606   0.0111 137.7087 0001844  44.1690  76.9043  1.00272984 34088
CHINASAT 10 (ZX 10)     
1 37677U 11026A   20246.56938507 -.00000371  00000-0  00000-0 0  9999
2 37677   0.0520 253.9584 0004805 282.5270 121.1643  1.00274618 33786
TIANLIAN 1-02           
1 37737U 11032A   20246.64979885 -.00000034  00000-0  00000+0 0  9991
2 37737   2.6949  74.2849 0017032  98.5321 214.3042  1.00272979 33520
GSAT-12                 
1 37746U 11034A   20246.52307522 -.00000184  00000-0  00000-0 0  9990
2 37746   0.0932 279.8796 0009790 181.3869 152.1631  1.00272743 22304
SES-3                   
1 37748U 11035A   20246.53569986 -.00000120  00000-0  00000-0 0  9998
2 37748   0.0566 304.9942 0002893 217.7425 269.2489  1.00272303 33418
KAZSAT-2                
1 37749U 11035B   20246.45197794 -.00000215  00000-0  00000-0 0  9999
2 37749   0.0145 154.9875 0001927 117.3585 318.8965  1.00263951 32192
BEIDOU 9                
1 37763U 11038A   20246.55770647 -.00000119  00000-0  10000-3 0  9990
2 37763  54.4518 184.6672 0073850 225.5400 228.6448  1.00278446 33451
ASTRA 1N                
1 37775U 11041A   20246.29488873  .00000100  00000-0  00000-0 0  9990
2 37775   0.0461  19.3906 0003028  87.6125   0.2304  1.00272072 23333
BSAT-3C (JCSAT-110R)    
1 37776U 11041B   20246.56937733 -.00000370  00000-0  00000-0 0  9995
2 37776   0.0567 283.5304 0000143 176.6224 196.9444  1.00271853 29297
PAKSAT-1R               
1 37779U 11042A   20246.22693194  .00000134  00000-0  00000-0 0  9999
2 37779   0.0021  37.1061 0003845  73.4316 350.9781  1.00276655 33089
CHINASAT 1A (ZX 1A)     
1 37804U 11047A   20246.62670927 -.00000357  00000-0  00000-0 0  9994
2 37804   0.0288 284.2743 0000477 307.2223 106.1805  1.00269529 32874
COSMOS 2473             
1 37806U 11048A   20246.36014119 -.00000132  00000-0  00000-0 0  9994
2 37806   0.2297 100.8631 0003602  47.5877 309.0453  1.00267882 32872
SES-2                   
1 37809U 11049A   20246.48914045 -.00000215  00000-0  00000-0 0  9990
2 37809   0.0599 294.1438 0002967 224.4559 272.5698  1.00273116 32801
ARABSAT-5C              
1 37810U 11049B   20246.29515043  .00000104  00000-0  00000-0 0  9992
2 37810   0.0622   8.7257 0005144 164.4459 294.9623  1.00272358 32869
EUTELSAT 7 WEST A       
1 37816U 11051A   20246.36144973 -.00000079  00000-0  00000-0 0  9991
2 37816   0.0894  57.1905 0007634 112.7705 294.8101  1.00272323 32705
QUETZSAT 1              
1 37826U 11054A   20246.43200753 -.00000261  00000-0  00000-0 0  9995
2 37826   0.0591 300.2253 0002616 215.7023 264.6225  1.00272453 28699
INTELSAT 18 (IS-18)     
1 37834U 11056A   20246.55738087  .00000033  00000-0  00000-0 0  9991
2 37834   0.0258 251.9463 0003065 268.1775 202.6677  1.00267082 32711
EUTELSAT 16A            
1 37836U 11057A   20246.29436530  .00000084  00000-0  00000+0 0  9998
2 37836   0.0687  14.0158 0004673 147.4040 302.4341  1.00271820 32596
VIASAT-1                
1 37843U 11059A   20246.52847270 -.00000042  00000-0  00000-0 0  9997
2 37843   0.0264 148.8035 0002691  16.1226 252.3462  1.00268947 26126
ASIASAT 7               
1 37933U 11069A   20246.45572910 -.00000353  00000-0  00000-0 0  9991
2 37933   0.0186 129.5375 0001713 356.4882 125.5977  1.00272781 23663
BEIDOU 10               
1 37948U 11073A   20246.59774918 -.00000131  00000-0  10000-3 0  9997
2 37948  51.4465 297.0229 0071390 214.7027 141.7406  1.00278599 32203
LUCH 5A                 
1 37951U 11074B   20246.62691075 -.00000065  00000-0  00000-0 0  9990
2 37951   3.4339 112.7248 0004087  21.6382 240.4874  1.00270842 31990
NIGCOMSAT 1R            
1 38014U 11077A   20246.22780431  .00000125  00000-0  00000-0 0  9991
2 38014   0.0127 104.3523 0002828  32.9038 329.0577  1.00271881 31769
FENGYUN 2F              
1 38049U 12002A   20246.62245756 -.00000375  00000-0  00000-0 0  9996
2 38049   2.2368  83.2967 0000770  76.8788 158.3393  1.00267299 31697
WGS F4 (USA 233)        
1 38070U 12003A   20246.38053171 -.00000234  00000-0  00000-0 0  9996
2 38070   0.0095 138.7748 0000382  22.7061  45.8932  1.00269687 22951
SES-4                   
1 38087U 12007A   20246.35857095 -.00000188  00000-0  00000-0 0  9990
2 38087   0.0136  89.5299 0002404  75.2240 284.2927  1.00270619 31295
BEIDOU 11               
1 38091U 12008A   20246.58998519  .00000039  00000-0  00000-0 0  9992
2 38091   1.6361  68.6340 0001510 273.8844 270.7462  1.00274360 31285
MUOS-1                  
1 38093U 12009A   20246.53846187 -.00000144  00000-0  00000-0 0  9991
2 38093   2.5313  10.3317 0050639   1.7070  63.9199  1.00273924 31258
INTELSAT 22 (IS-22)     
1 38098U 12011A   20246.44909916 -.00000078  00000-0  00000-0 0  9995
2 38098   0.0203 233.2105 0002844 309.3011  33.3164  1.00271471 30620
APSTAR 7                
1 38107U 12013A   20246.59356185 -.00000120  00000-0  00000-0 0  9996
2 38107   0.0367 114.6229 0002503  39.4211 118.3139  1.00271252 30977
YAHSAT 1B               
1 38245U 12016A   20246.22885113  .00000106  00000-0  00000-0 0  9993
2 38245   0.0097 128.5186 0001529   2.9250 340.3796  1.00270834 24403
AEHF-2 (USA 235)        
1 38254U 12019A   20246.49297883 -.00000293  00000-0  00000-0 0  9994
2 38254   2.1205  49.3277 0006168  84.3743 318.3506  1.00273485 29665
JCSAT-13                
1 38331U 12023A   20246.53799584 -.00000375  00000-0  00000-0 0  9996
2 38331   0.0148 134.0499 0002319  29.3304 136.4148  1.00269926 30330
VINASAT-2               
1 38332U 12023B   20246.53275840 -.00000348  00000-0  00000-0 0  9991
2 38332   0.0521 299.9342 0002134 221.6755 144.1522  1.00271463 25465
NIMIQ 6                 
1 38342U 12026A   20246.48835532 -.00000192  00000-0  00000-0 0  9996
2 38342   0.0545 295.5976 0002703 219.7628 271.4259  1.00271674 29229
CHINASAT 2A (ZX 2A)     
1 38352U 12028A   20246.52612848 -.00000312  00000-0  00000-0 0  9991
2 38352   0.0605 297.9413 0001435 357.2326 334.5733  1.00274745 30180
INTELSAT 19 (IS-19)     
1 38356U 12030A   20246.48316806 -.00000076  00000-0  00000-0 0  9995
2 38356   0.0112 119.9829 0003287  41.3087 160.7284  1.00272200 29264
ECHOSTAR 17             
1 38551U 12035A   20246.53378472 -.00000094  00000-0  00000-0 0  9990
2 38551   0.0170 151.4166 0002041  17.3955 258.3787  1.00272843 29876
METEOSAT-10 (MSG-3)     
1 38552U 12035B   20246.29305677  .00000044  00000-0  00000-0 0  9995
2 38552   1.3431 344.5952 0001800 144.1038 328.2237  1.00276993 30028
SES-5                   
1 38652U 12036A   20246.29209719  .00000014  00000-0  00000-0 0  9994
2 38652   0.0446  96.9061 0002087  57.8160 297.3029  1.00272622 23295
TIANLIAN 1-03           
1 38730U 12040A   20246.58230843  .00000107  00000-0  00000-0 0  9993
2 38730   0.4037 103.6217 0002420 303.1669 165.3882  1.00276388 29798
INTELSAT 20 (IS-20)     
1 38740U 12043A   20246.52019644 -.00000044  00000-0  00000-0 0  9996
2 38740   0.0165 143.1779 0001434  47.9713  46.7429  1.00270963 29552
HYLAS 2                 
1 38741U 12043B   20246.29733133  .00000135  00000-0  00000-0 0  9997
2 38741   0.0540 291.0364 0001895 224.7449 324.1930  1.00275241 29571
INTELSAT 21 (IS-21)     
1 38749U 12045A   20246.49489802 -.00000304  00000-0  00000-0 0  9999
2 38749   0.0135 212.8435 0002318 307.4718 301.9511  1.00273545 29357
ASTRA 2F                
1 38778U 12051A   20246.29672068  .00000130  00000-0  00000-0 0  9990
2 38778   0.0864 245.3869 0003931 311.7610 279.7418  1.00271892 19968
GSAT-10                 
1 38779U 12051B   20246.57039649 -.00000184  00000-0  00000-0 0  9994
2 38779   0.0670 287.1352 0000577 268.4025  74.9800  1.00272129 28926
INTELSAT 23 (IS-23)     
1 38867U 12057A   20246.43183861 -.00000304  00000-0  00000-0 0  9993
2 38867   0.0150 207.7466 0001965 309.4594 287.2831  1.00270594 28781
BEIDOU 16               
1 38953U 12059A   20246.51012789 -.00000193  00000-0  00000-0 0  9996
2 38953   1.2830  84.1042 0006188 266.8198 258.8220  1.00269058 28857
LUCH 5B                 
1 38977U 12061A   20246.35970501 -.00000150  00000-0  00000-0 0  9995
2 38977   5.9034  67.1402 0002948  69.5171 318.5549  1.00272074 28984
